#dP2024  6  9 18  0  0.00000000      96 __u+U IGS20 EXT  IAC
## 2318  64800.00000000   900.00000000 60470 0.7500000000000
+   54   G02G03G04G05G06G07G08G09G10G11G12G13G14G15G16G17G18
+        G19G20G21G22G23G24G25G26G27G28G29G30G31G32R01R02R03
+        R04R05R07R08R09R11R12R13R14R15R16R17R18R19R20R21R22
+        R24R25R26  0  0  0  0  0  0  0  0  0  0  0  0  0  0
+          0  0  0  0  0  0  0  0  0  0  0  0  0  0  0  0  0
++         8  9  8  9  9  9  8  8  8  9  8  7  7  8  8  8  7
++         9  9  8  7  8  8  9  8  7  8  7  8  7  8  8  7  9
++         8  9  9  9  7  7  7  8  9  7  8  8  8  8  7  7 10
++        10  6  9  0  0  0  0  0  0  0  0  0  0  0  0  0  0
++         0  0  0  0  0  0  0  0  0  0  0  0  0  0  0  0  0
%c M  cc GPS ccc cccc cccc cccc cccc ccccc ccccc ccccc ccccc
%c cc cc ccc ccc cccc cccc cccc cccc ccccc ccccc ccccc ccccc
%f  0.0000000  0.000000000  0.00000000000  0.000000000000000
%f  0.0000000  0.000000000  0.00000000000  0.000000000000000
%i    0    0    0    0      0      0      0      0         0
%i    0    0    0    0      0      0      0      0         0
/* IAC                                ULTRA-RAPID PREDICTION
/* S/V CLOCKS ARE ALIGNED TO GNSS TIME                      
/* G:C1WC2W R:C1PC2P E:C1XC5X C:C2IC6I J:C1CC2S             
/* PCV:IGS20_2317 OL/AL:FES2004  NONE     YN ORB:CoN CLK:CoN
*  2024 06 10  3 30  0.00000000
PG02 -22106.350163 -12704.267869   8440.463502   -420.552978
PG03 -14341.801417  -3072.413735  21980.471474    406.245948
PG04 -24858.312557  -2124.104124   9323.650463    379.911406
PG05   7594.963823  18350.398947 -17773.129555   -175.784096
PG06  -1110.961047  18092.287073  19432.871488    227.011617
PG07 -16789.759250   2743.025630 -19989.774705    -97.476623
PG08 -18380.362987  -8285.200947 -17612.008735    222.317836
PG09 -25295.437926   7846.565769  -2435.052868    228.895374
PG10  10483.108906 -23857.348766  -3930.707545    -39.645625
PG11  10244.518530  22684.527170   9372.238772   -682.136203
PG12  13697.406516   6249.977863  21600.628099   -512.796216
PG13   9816.676131  13596.270778 -20860.847956    656.838602
PG14 -13291.395988  21589.191327  -7504.457744    421.738444
PG15  19113.485662   6724.979532 -17769.423681    168.463128
PG16  -3463.894211 -20813.506063 -16183.885431   -268.498898
PG17 -17806.563570  13230.701070  15143.480862    696.698013
PG18  15861.871587  -3532.479427 -21035.943987   -622.901269
PG19  -8734.137155  14767.368296  19986.352113    494.257475
PG20   3097.269024  24829.204589  -9069.093357    374.000096
PG21 -21320.460744 -16514.918451   3301.742768    116.412632
PG22  -9674.236450  24894.107462   1216.006017    -25.287736
PG23  15025.989401 -15991.343990 -14797.318887    246.611702
PG24  21736.748053  14589.989362   5211.801940   -476.635706
PG25  16377.607319  -5025.405446  19895.132992    497.117327
PG26   3507.337281 -25920.625036  -3420.109324    139.461673
PG27  -7001.658118 -13996.385198 -21789.686449    -27.652441
PG28   3069.972553 -17060.773786  20113.253890   -282.051007
PG29  26398.076567  -3463.829918    212.272157   -594.900753
PG30  -8706.983796  13474.026698 -20987.875956   -376.738960
PG31  -6421.503619 -21781.770897  13232.744023   -227.479524
PG32  14863.391572 -14953.383973  16244.936789   -616.666884
PR01 -21716.411464  10595.629849   8148.331306     87.941544
PR02 -17428.469543  16317.941741  -9019.652377    -23.208667
PR03  -2654.902321  13735.240809 -21294.506036    101.782659
PR04  12926.792917   3540.048894 -21669.803979    240.392623
PR05  21742.701354  -8331.463089 -10381.864583    132.863002
PR07   1788.464213 -13362.999720  21686.327383     84.256851
PR08 -13243.044681  -3366.282840  21607.760305     -4.792114
PR09   5244.731954 -20411.649354  14456.601298    191.382501
PR11  -9087.116188 -17346.188827 -16344.220825     21.910032
PR12 -10795.276278   3047.995139 -22880.623868     41.140055
PR13  -6476.715992  18367.716116 -16481.048602    -48.203205
PR14   2895.134575  25256.878463   1954.381902     26.568725
PR15   9517.513175  15980.189651  17474.496415     78.971640
PR16  10676.212446  -2858.272931  23005.057790     26.358598
PR17   9965.460461  14507.671766  18483.550045     94.481761
PR18  21240.624097  13337.948825   4522.082308    146.282526
PR19  22205.718192   7108.232487 -10359.941480   -279.762381
PR20   8800.774888  -6810.761648 -22946.732043   -114.226369
PR21  -9563.223059 -14468.850058 -18698.436238   -107.981697
PR22 -21359.030166 -13563.341861  -3264.206978    104.466151
PR24  -8203.019002   7927.221267  22823.404824    -59.234125
PR25  -9481.067402 -15134.499635 -18202.520932    -42.349862
PR26 -12183.862112  -4231.469811  22023.654047     -6.628473
*  2024 06 10  3 45  0.00000000
PG02 -22539.993649 -13344.211709   5741.695162   -420.546674
PG03 -13634.078884  -5514.414617  21964.753501    406.262454
PG04 -23723.972843  -2573.050008  11822.178759    379.918755
PG05   7018.981219  20164.199509 -15922.373481   -175.785248
PG06  -2726.276869  16482.140081  20679.329098    226.992819
PG07 -18320.259282   1002.155374 -18846.513470    -97.466293
PG08 -16424.875246  -8973.795974 -19112.978675    222.334544
PG09 -25466.800433   7627.070274    410.465526    228.908432
PG10  10505.777108 -23184.583052  -6764.842154    -39.652790
PG11   9291.630636  21910.774301  11872.999891   -682.143637
PG12  12816.793720   8607.333421  21336.576489   -512.799100
PG13   7454.537334  13887.734634 -21619.589009    656.841005
PG14 -13261.047503  20530.438520 -10092.778640    421.746689
PG15  17301.869219   7645.836186 -19218.048853    168.466926
PG16  -2670.285625 -22326.262213 -14105.741751   -268.489548
PG17 -19345.810254  13355.656538  12936.150191    696.693351
PG18  17408.435557  -1770.035186 -20028.755303   -622.905808
PG19 -10986.165796  14953.418257  18671.123692    494.262348
PG20   2760.642457  25690.158582  -6422.989845    373.999740
PG21 -21332.579002 -16753.300120    515.130425    116.410476
PG22  -9865.974602  24746.610070  -1624.000877    -25.292236
PG23  14720.366312 -14194.728500 -16814.814623    246.620004
PG24  21909.544671  15131.329900   2480.514777   -476.638126
PG25  15854.663696  -2677.116342  20763.639010    497.117806
PG26   3909.387528 -26062.324925   -616.004219    139.456114
PG27  -4639.023656 -14605.685616 -21985.456705    -27.653670
PG28   4817.507963 -15478.365685  21029.151193   -282.066269
PG29  26244.230965  -3218.505829   3073.784014   -594.899220
PG30 -10444.573600  11732.032769 -21261.769579   -376.733448
PG31  -5105.387200 -20702.848004  15369.102577   -227.479334
PG32  16569.359518 -15204.252385  14188.199023   -616.665931
PR01 -20690.281735   9986.407658  11067.474124     87.942544
PR02 -18097.621131  16985.812586  -5975.095809    -23.208659
PR03  -4688.416415  15274.360371 -19854.547907    101.783162
PR04  10650.374672   5066.258481 -22585.269145    240.394144
PR05  20458.000224  -7628.343535 -13159.763127    132.863626
PR07   3858.713483 -14914.998657  20358.088414     84.257675
PR08 -11004.197777  -4894.263878  22551.468191     -4.792388
PR09   5419.699864 -18500.040226  16774.676923    191.384462
PR11  -9397.853730 -19193.278975 -13929.103019     21.908972
PR12 -11079.431941    228.050918 -22945.696063     41.140529
PR13  -6636.497948  16212.703582 -18549.424062    -48.203461
PR14   3014.080833  25285.792986  -1244.094938     26.568837
PR15   9809.875095  17974.125848  15227.474830     78.971438
PR16  10973.412875    -36.014129  23039.562945     26.359012
PR17   7841.635540  13405.527641  20250.666316     94.484791
PR18  20646.795635  12837.213750   7650.373237    146.284262
PR19  23271.452894   7429.156987  -7359.968434   -279.763612
PR20  11300.225551  -5571.080780 -22170.340961   -114.227022
PR21  -7425.283269 -13336.241503 -20434.101837   -107.984417
PR22 -20891.583186 -13160.730128  -6404.538718    104.462625
PR24 -10730.904377   6789.646030  22129.275141    -59.235388
PR25  -7420.204492 -13986.353212 -19991.444875    -42.378105
PR26  -9920.226310  -5812.924064  22788.660745     -6.627690
EOF
